CCSDS_OMM_VERS = 2.0
CREATION_DATE  = 
ORIGINATOR     = 

OBJECT_NAME    = STARLINK-36534
OBJECT_ID      = 2026-012D
CENTER_NAME    = EARTH
REF_FRAME      = TEME
TIME_SYSTEM    = UTC
MEAN_ELEMENT_THEORY = SGP/SGP4

EPOCH          = 2026-02-13T22:00:01.999584
MEAN_MOTION    = 15.43614969
ECCENTRICITY   = .00011003
INCLINATION    = 43.0002
RA_OF_ASC_NODE = 89.1151
ARG_OF_PERICENTER = 266.5700
MEAN_ANOMALY   = 353.8465

EPHEMERIS_TYPE = 0
CLASSIFICATION_TYPE = U
NORAD_CAT_ID   = 67496
ELEMENT_SET_NO = 999
REV_AT_EPOCH   = 519
BSTAR          = -.45176987E-1
MEAN_MOTION_DOT = -.1869347E-1
MEAN_MOTION_DDOT = 0

CCSDS_OMM_VERS = 2.0
CREATION_DATE  = 
ORIGINATOR     = 

OBJECT_NAME    = STARLINK-36555
OBJECT_ID      = 2026-012E
CENTER_NAME    = EARTH
REF_FRAME      = TEME
TIME_SYSTEM    = UTC
MEAN_ELEMENT_THEORY = SGP/SGP4

EPOCH          = 2026-02-13T22:00:01.999584
MEAN_MOTION    = 15.43255593
ECCENTRICITY   = .00010414
INCLINATION    = 43.0000
RA_OF_ASC_NODE = 89.1381
ARG_OF_PERICENTER = 268.1934
MEAN_ANOMALY   = 343.0351

EPHEMERIS_TYPE = 0
CLASSIFICATION_TYPE = U
NORAD_CAT_ID   = 67497
ELEMENT_SET_NO = 999
REV_AT_EPOCH   = 525
BSTAR          = -.45974043E-1
MEAN_MOTION_DOT = -.1878126E-1
MEAN_MOTION_DDOT = 0

CCSDS_OMM_VERS = 2.0
CREATION_DATE  = 
ORIGINATOR     = 

OBJECT_NAME    = STARLINK-36081
OBJECT_ID      = 2026-012F
CENTER_NAME    = EARTH
REF_FRAME      = TEME
TIME_SYSTEM    = UTC
MEAN_ELEMENT_THEORY = SGP/SGP4

EPOCH          = 2026-02-13T13:33:22.988160
MEAN_MOTION    = 15.50615292
ECCENTRICITY   = .00017084
INCLINATION    = 43.0000
RA_OF_ASC_NODE = 91.4009
ARG_OF_PERICENTER = 21.5138
MEAN_ANOMALY   = 338.5794

EPHEMERIS_TYPE = 0
CLASSIFICATION_TYPE = U
NORAD_CAT_ID   = 67498
ELEMENT_SET_NO = 999
REV_AT_EPOCH   = 406
BSTAR          = .10546111E-2
MEAN_MOTION_DOT = .62101E-3
MEAN_MOTION_DDOT = 0

CCSDS_OMM_VERS = 2.0
CREATION_DATE  = 
ORIGINATOR     = 

OBJECT_NAME    = STARLINK-36558
OBJECT_ID      = 2026-012G
CENTER_NAME    = EARTH
REF_FRAME      = TEME
TIME_SYSTEM    = UTC
MEAN_ELEMENT_THEORY = SGP/SGP4

EPOCH          = 2026-02-13T13:32:43.977696
MEAN_MOTION    = 15.50594060
ECCENTRICITY   = .00009659
INCLINATION    = 42.9993
RA_OF_ASC_NODE = 91.3999
ARG_OF_PERICENTER = 265.6314
MEAN_ANOMALY   = 94.4436

EPHEMERIS_TYPE = 0
CLASSIFICATION_TYPE = U
NORAD_CAT_ID   = 67499
ELEMENT_SET_NO = 999
REV_AT_EPOCH   = 406
BSTAR          = .11482195E-2
MEAN_MOTION_DOT = .67639E-3
MEAN_MOTION_DDOT = 0

CCSDS_OMM_VERS = 2.0
CREATION_DATE  = 
ORIGINATOR     = 

OBJECT_NAME    = STARLINK-36557
OBJECT_ID      = 2026-012H
CENTER_NAME    = EARTH
REF_FRAME      = TEME
TIME_SYSTEM    = UTC
MEAN_ELEMENT_THEORY = SGP/SGP4

EPOCH          = 2026-02-13T22:00:01.999584
MEAN_MOTION    = 15.41684956
ECCENTRICITY   = .00014023
INCLINATION    = 42.9999
RA_OF_ASC_NODE = 88.8934
ARG_OF_PERICENTER = 262.7934
MEAN_ANOMALY   = 86.6245

EPHEMERIS_TYPE = 0
CLASSIFICATION_TYPE = U
NORAD_CAT_ID   = 67500
ELEMENT_SET_NO = 999
REV_AT_EPOCH   = 525
BSTAR          = -.49911972E-1
MEAN_MOTION_DOT = -.1927702E-1
MEAN_MOTION_DDOT = 0

CCSDS_OMM_VERS = 2.0
CREATION_DATE  = 
ORIGINATOR     = 

OBJECT_NAME    = STARLINK-36433
OBJECT_ID      = 2026-012J
CENTER_NAME    = EARTH
REF_FRAME      = TEME
TIME_SYSTEM    = UTC
MEAN_ELEMENT_THEORY = SGP/SGP4

EPOCH          = 2026-02-13T22:00:01.999584
MEAN_MOTION    = 15.42046653
ECCENTRICITY   = .00016097
INCLINATION    = 43.0009
RA_OF_ASC_NODE = 88.8517
ARG_OF_PERICENTER = 265.4543
MEAN_ANOMALY   = 100.7208

EPHEMERIS_TYPE = 0
CLASSIFICATION_TYPE = U
NORAD_CAT_ID   = 67501
ELEMENT_SET_NO = 999
REV_AT_EPOCH   = 525
BSTAR          = -.49089282E-1
MEAN_MOTION_DOT = -.1920209E-1
MEAN_MOTION_DDOT = 0

CCSDS_OMM_VERS = 2.0
CREATION_DATE  = 
ORIGINATOR     = 

OBJECT_NAME    = STARLINK-36554
OBJECT_ID      = 2026-012K
CENTER_NAME    = EARTH
REF_FRAME      = TEME
TIME_SYSTEM    = UTC
MEAN_ELEMENT_THEORY = SGP/SGP4

EPOCH          = 2026-02-13T22:00:01.999584
MEAN_MOTION    = 15.50111197
ECCENTRICITY   = .00012271
INCLINATION    = 43.0003
RA_OF_ASC_NODE = 89.0811
ARG_OF_PERICENTER = 254.9112
MEAN_ANOMALY   = 18.1326

EPHEMERIS_TYPE = 0
CLASSIFICATION_TYPE = U
NORAD_CAT_ID   = 67502
ELEMENT_SET_NO = 999
REV_AT_EPOCH   = 519
BSTAR          = -.37345253E-1
MEAN_MOTION_DOT = -.1932219E-1
MEAN_MOTION_DDOT = 0

CCSDS_OMM_VERS = 2.0
CREATION_DATE  = 
ORIGINATOR     = 

OBJECT_NAME    = STARLINK-36552
OBJECT_ID      = 2026-012L
CENTER_NAME    = EARTH
REF_FRAME      = TEME
TIME_SYSTEM    = UTC
MEAN_ELEMENT_THEORY = SGP/SGP4

EPOCH          = 2026-02-13T22:00:01.999584
MEAN_MOTION    = 15.43038427
ECCENTRICITY   = .00016335
INCLINATION    = 42.9998
RA_OF_ASC_NODE = 88.7452
ARG_OF_PERICENTER = 274.8348
MEAN_ANOMALY   = 134.8091

EPHEMERIS_TYPE = 0
CLASSIFICATION_TYPE = U
NORAD_CAT_ID   = 67503
ELEMENT_SET_NO = 999
REV_AT_EPOCH   = 525
BSTAR          = -.45555962E-1
MEAN_MOTION_DOT = -.1850682E-1
MEAN_MOTION_DDOT = 0

CCSDS_OMM_VERS = 2.0
CREATION_DATE  = 
ORIGINATOR     = 

OBJECT_NAME    = STARLINK-36512
OBJECT_ID      = 2026-012M
CENTER_NAME    = EARTH
REF_FRAME      = TEME
TIME_SYSTEM    = UTC
MEAN_ELEMENT_THEORY = SGP/SGP4

EPOCH          = 2026-02-13T22:00:01.999584
MEAN_MOTION    = 15.47451367
ECCENTRICITY   = .00019
INCLINATION    = 43.0006
RA_OF_ASC_NODE = 88.8138
ARG_OF_PERICENTER = 273.3414
MEAN_ANOMALY   = 107.5511

EPHEMERIS_TYPE = 0
CLASSIFICATION_TYPE = U
NORAD_CAT_ID   = 67504
ELEMENT_SET_NO = 999
REV_AT_EPOCH   = 525
BSTAR          = -.40064304E-1
MEAN_MOTION_DOT = -.1891323E-1
MEAN_MOTION_DDOT = 0

CCSDS_OMM_VERS = 2.0
CREATION_DATE  = 
ORIGINATOR     = 

OBJECT_NAME    = STARLINK-36545
OBJECT_ID      = 2026-012N
CENTER_NAME    = EARTH
REF_FRAME      = TEME
TIME_SYSTEM    = UTC
MEAN_ELEMENT_THEORY = SGP/SGP4

EPOCH          = 2026-02-13T22:00:01.999584
MEAN_MOTION    = 15.47824118
ECCENTRICITY   = .00016974
INCLINATION    = 43.0006
RA_OF_ASC_NODE = 88.7662
ARG_OF_PERICENTER = 275.7916
MEAN_ANOMALY   = 124.3348

EPHEMERIS_TYPE = 0
CLASSIFICATION_TYPE = U
NORAD_CAT_ID   = 67505
ELEMENT_SET_NO = 999
REV_AT_EPOCH   = 525
BSTAR          = -.40027575E-1
MEAN_MOTION_DOT = -.1912045E-1
MEAN_MOTION_DDOT = 0

CCSDS_OMM_VERS = 2.0
CREATION_DATE  = 
ORIGINATOR     = 

OBJECT_NAME    = STARLINK-36553
OBJECT_ID      = 2026-012P
CENTER_NAME    = EARTH
REF_FRAME      = TEME
TIME_SYSTEM    = UTC
MEAN_ELEMENT_THEORY = SGP/SGP4

EPOCH          = 2026-02-13T22:00:01.999584
MEAN_MOTION    = 15.46600475
ECCENTRICITY   = .00016217
INCLINATION    = 43.0006
RA_OF_ASC_NODE = 88.6743
ARG_OF_PERICENTER = 277.1726
MEAN_ANOMALY   = 160.2611

EPHEMERIS_TYPE = 0
CLASSIFICATION_TYPE = U
NORAD_CAT_ID   = 67506
ELEMENT_SET_NO = 999
REV_AT_EPOCH   = 525
BSTAR          = -.42023E-1
MEAN_MOTION_DOT = -.1921911E-1
MEAN_MOTION_DDOT = 0

CCSDS_OMM_VERS = 2.0
CREATION_DATE  = 
ORIGINATOR     = 

OBJECT_NAME    = STARLINK-36521
OBJECT_ID      = 2026-012Q
CENTER_NAME    = EARTH
REF_FRAME      = TEME
TIME_SYSTEM    = UTC
MEAN_ELEMENT_THEORY = SGP/SGP4

EPOCH          = 2026-02-13T22:00:01.999584
MEAN_MOTION    = 15.47085093
ECCENTRICITY   = .00014869
INCLINATION    = 43.0001
RA_OF_ASC_NODE = 88.6598
ARG_OF_PERICENTER = 273.4774
MEAN_ANOMALY   = 169.7175

EPHEMERIS_TYPE = 0
CLASSIFICATION_TYPE = U
NORAD_CAT_ID   = 67507
ELEMENT_SET_NO = 999
REV_AT_EPOCH   = 525
BSTAR          = -.40922827E-1
MEAN_MOTION_DOT = -.1905368E-1
MEAN_MOTION_DDOT = 0

