STARLINK-36534          
1 67496U 26012D   26044.91668981 -.01869347  00000+0 -45177-1 0  9991
2 67496  43.0002  89.1151 0001100 266.5700 353.8465 15.43614969  5193
STARLINK-36555          
1 67497U 26012E   26044.91668981 -.01878126  00000+0 -45974-1 0  9992
2 67497  43.0000  89.1381 0001041 268.1934 343.0351 15.43255593  5254
STARLINK-36081          
1 67498U 26012F   26044.56484940  .00062101  00000+0  10546-2 0  9998
2 67498  43.0000  91.4009 0001708  21.5138 338.5794 15.50615292  4067
STARLINK-36558          
1 67499U 26012G   26044.56439789  .00067639  00000+0  11482-2 0  9991
2 67499  42.9993  91.3999 0000965 265.6314  94.4436 15.50594060  4065
STARLINK-36557          
1 67500U 26012H   26044.91668981 -.01927702  00000+0 -49912-1 0  9998
2 67500  42.9999  88.8934 0001402 262.7934  86.6245 15.41684956  5254
STARLINK-36433          
1 67501U 26012J   26044.91668981 -.01920209  00000+0 -49089-1 0  9999
2 67501  43.0009  88.8517 0001609 265.4543 100.7208 15.42046653  5255
STARLINK-36554          
1 67502U 26012K   26044.91668981 -.01932219  00000+0 -37345-1 0  9996
2 67502  43.0003  89.0811 0001227 254.9112  18.1326 15.50111197  5192
STARLINK-36552          
1 67503U 26012L   26044.91668981 -.01850682  00000+0 -45556-1 0  9993
2 67503  42.9998  88.7452 0001633 274.8348 134.8091 15.43038427  5252
STARLINK-36512          
1 67504U 26012M   26044.91668981 -.01891323  00000+0 -40064-1 0  9990
2 67504  43.0006  88.8138 0001900 273.3414 107.5511 15.47451367  5252
STARLINK-36545          
1 67505U 26012N   26044.91668981 -.01912045  00000+0 -40028-1 0  9996
2 67505  43.0006  88.7662 0001697 275.7916 124.3348 15.47824118  5253
STARLINK-36553          
1 67506U 26012P   26044.91668981 -.01921911  00000+0 -42023-1 0  9996
2 67506  43.0006  88.6743 0001621 277.1726 160.2611 15.46600475  5254
STARLINK-36521          
1 67507U 26012Q   26044.91668981 -.01905368  00000+0 -40923-1 0  9992
2 67507  43.0001  88.6598 0001486 273.4774 169.7175 15.47085093  5252
